[{"OBJECT_NAME":"STARLINK-31369","OBJECT_ID":"2024-031L","EPOCH":"2026-03-09T21:23:50.417664","MEAN_MOTION":15.30206483,"ECCENTRICITY":0.00014075,"INCLINATION":53.1611,"RA_OF_ASC_NODE":295.7854,"ARG_OF_PERICENTER":83.3177,"MEAN_ANOMALY":276.7984,"EPHEMERIS_TYPE":0,"CLASSIFICATION_TYPE":"U","NORAD_CAT_ID":58975,"ELEMENT_SET_NO":999,"REV_AT_EPOCH":11654,"BSTAR":9.8985777e-5,"MEAN_MOTION_DOT":2.574e-5,"MEAN_MOTION_DDOT":0},{"OBJECT_NAME":"ATLAS 5 CENTAUR R\/B","OBJECT_ID":"2013-072P","EPOCH":"2026-03-09T21:36:10.628064","MEAN_MOTION":14.96443736,"ECCENTRICITY":0.0189428,"INCLINATION":120.4328,"RA_OF_ASC_NODE":111.5185,"ARG_OF_PERICENTER":160.796,"MEAN_ANOMALY":200.0359,"EPHEMERIS_TYPE":0,"CLASSIFICATION_TYPE":"U","NORAD_CAT_ID":39475,"ELEMENT_SET_NO":999,"REV_AT_EPOCH":9970,"BSTAR":0.00054929733,"MEAN_MOTION_DOT":8.701e-5,"MEAN_MOTION_DDOT":0}]
